[Satellite]
VERSION=1.1
NAME=FLOCK 3P-73
NICKNAME=FLOCK 3P-73
TLE1=1 41981U 17008AK  17186.17685280  .00002061  00000-0  91965-4 0  9992
TLE2=2 41981  97.4974 247.5014 0010323 127.1606 233.0575 15.22483827 21246
